{"type": "FeatureCollection", "features": [ {"type": "Feature", "properties": {"norad_id": 33492, "name": "GOSAT (IBUKI)", "group": "resource", "lat": 45.6852949434764, "lon": -78.02819394914643, "alt_km": 664.4948556176805, "timestamp": "2025-12-10T23:33:12.483514+00:00", "meta": {"OBJECT_NAME": "GOSAT (IBUKI)", "OBJECT_ID": "2009-002A", "EPOCH": "2025-12-10T06:34:58.841760", "MEAN_MOTION": 14.6754762, "ECCENTRICITY": 9.44e-05, "INCLINATION": 98.0768, "RA_OF_ASC_NODE": 92.9119, "ARG_OF_PERICENTER": 89.0594, "MEAN_ANOMALY": 271.0719, "EPHEMERIS_TYPE": 0, "CLASSIFICATION_TYPE": "U", "NORAD_CAT_ID": 33492, "ELEMENT_SET_NO": 999, "REV_AT_EPOCH": 90375, "BSTAR": 0.00027075, "MEAN_MOTION_DOT": 1.488e-05, "MEAN_MOTION_DDOT": 0}, "tle": {"line1": "1 33492U 09002A   25344.27429215  .00001488  00000+0  27075-3 0  9996", "line2": "2 33492  98.0768  92.9119 0000944  89.0594 271.0719 14.67547620903757"}}, "geometry": {"type": "Point", "coordinates": [-78.02819394914643, 45.6852949434764]}}, {"type": "Feature", "properties": {"norad_id": 35681, "name": "DEIMOS-1", "group": "resource", "lat": 15.017461124563832, "lon": -32.2496886363536, "alt_km": 645.9642393486547, "timestamp": "2025-12-10T23:33:12.483523+00:00", "meta": {"OBJECT_NAME": "DEIMOS-1", "OBJECT_ID": "2009-041A", "EPOCH": "2025-12-10T14:40:06.364128", "MEAN_MOTION": 14.7494638, "ECCENTRICITY": 0.00027311, "INCLINATION": 97.7149, "RA_OF_ASC_NODE": 145.3133, "ARG_OF_PERICENTER": 82.6891, "MEAN_ANOMALY": 277.4629, "EPHEMERIS_TYPE": 0, "CLASSIFICATION_TYPE": "U", "NORAD_CAT_ID": 35681, "ELEMENT_SET_NO": 999, "REV_AT_EPOCH": 87908, "BSTAR": 0.00014020242, "MEAN_MOTION_DOT": 8.95e-06, "MEAN_MOTION_DDOT": 0}, "tle": {"line1": "1 35681U 09041A   25344.61118477  .00000895  00000+0  14020-3 0  9991", "line2": "2 35681  97.7149 145.3133 0002731  82.6891 277.4629 14.74946380879084"}}, "geometry": {"type": "Point", "coordinates": [-32.2496886363536, 15.017461124563832]}}, {"type": "Feature", "properties": {"norad_id": 35682, "name": "DUBAISAT-1", "group": "resource", "lat": 75.7556002704165, "lon": -30.774471204163007, "alt_km": 644.5565057671083, "timestamp": "2025-12-10T23:33:12.483533+00:00", "meta": {"OBJECT_NAME": "DUBAISAT-1", "OBJECT_ID": "2009-041B", "EPOCH": "2025-12-10T14:57:02.506752", "MEAN_MOTION": 14.74594827, "ECCENTRICITY": 0.000971, "INCLINATION": 97.9789, "RA_OF_ASC_NODE": 115.3339, "ARG_OF_PERICENTER": 321.8979, "MEAN_ANOMALY": 38.1542, "EPHEMERIS_TYPE": 0, "CLASSIFICATION_TYPE": "U", "NORAD_CAT_ID": 35682, "ELEMENT_SET_NO": 999, "REV_AT_EPOCH": 87730, "BSTAR": 0.00035071611, "MEAN_MOTION_DOT": 2.288e-05, "MEAN_MOTION_DDOT": 0}, "tle": {"line1": "1 35682U 09041B   25344.62294568  .00002288  00000+0  35072-3 0  9997", "line2": "2 35682  97.9789 115.3339 0009710 321.8979  38.1542 14.74594827877305"}}, "geometry": {"type": "Point", "coordinates": [-30.774471204163007, 75.7556002704165]}}, {"type": "Feature", "properties": {"norad_id": 35931, "name": "OCEANSAT-2", "group": "resource", "lat": 32.68948036777905, "lon": -19.563692618385026, "alt_km": 881.7046447917319, "timestamp": "2025-12-10T23:33:12.483542+00:00", "meta": {"OBJECT_NAME": "OCEANSAT-2", "OBJECT_ID": "2009-051A", "EPOCH": "2025-12-10T14:49:04.319904", "MEAN_MOTION": 13.99625128, "ECCENTRICITY": 0.00162903, "INCLINATION": 98.2224, "RA_OF_ASC_NODE": 345.4333, "ARG_OF_PERICENTER": 50.6103, "MEAN_ANOMALY": 309.6504, "EPHEMERIS_TYPE": 0, "CLASSIFICATION_TYPE": "U", "NORAD_CAT_ID": 35931, "ELEMENT_SET_NO": 999, "REV_AT_EPOCH": 85295, "BSTAR": -7.5802511e-05, "MEAN_MOTION_DOT": -1.48e-06, "MEAN_MOTION_DDOT": 0}, "tle": {"line1": "1 35931U 09051A   25344.61741111 -.00000148  00000+0 -75803-4 0  9997", "line2": "2 35931  98.2224 345.4333 0016290  50.6103 309.6504 13.99625128852950"}}, "geometry": {"type": "Point", "coordinates": [-19.563692618385026, 32.68948036777905]}}, {"type": "Feature", "properties": {"norad_id": 35946, "name": "WORLDVIEW-2 (WV-2)", "group": "resource", "lat": -80.71307870780831, "lon": 121.86526378712372, "alt_km": 777.1202756629218, "timestamp": "2025-12-10T23:33:12.483551+00:00", "meta": {"OBJECT_NAME": "WORLDVIEW-2 (WV-2)", "OBJECT_ID": "2009-055A", "EPOCH": "2025-12-10T13:55:55.180128", "MEAN_MOTION": 14.37651335, "ECCENTRICITY": 0.00053401, "INCLINATION": 98.4762, "RA_OF_ASC_NODE": 55.6946, "ARG_OF_PERICENTER": 72.1731, "MEAN_ANOMALY": 288.0038, "EPHEMERIS_TYPE": 0, "CLASSIFICATION_TYPE": "U", "NORAD_CAT_ID": 35946, "ELEMENT_SET_NO": 999, "REV_AT_EPOCH": 84854, "BSTAR": 0.00011523257, "MEAN_MOTION_DOT": 3.03e-06, "MEAN_MOTION_DDOT": 0}, "tle": {"line1": "1 35946U 09055A   25344.58049977  .00000303  00000+0  11523-3 0  9993", "line2": "2 35946  98.4762  55.6946 0005340  72.1731 288.0038 14.37651335848549"}}, "geometry": {"type": "Point", "coordinates": [121.86526378712372, -80.71307870780831]}}, {"type": "Feature", "properties": {"norad_id": 36036, "name": "SMOS", "group": "resource", "lat": -62.51332775777302, "lon": -173.3664931220387, "alt_km": 767.1853247455356, "timestamp": "2025-12-10T23:33:12.483561+00:00", "meta": {"OBJECT_NAME": "SMOS", "OBJECT_ID": "2009-059A", "EPOCH": "2025-12-10T12:10:24.899232", "MEAN_MOTION": 14.39738297, "ECCENTRICITY": 0.00011011, "INCLINATION": 98.4381, "RA_OF_ASC_NODE": 169.5887, "ARG_OF_PERICENTER": 84.6525, "MEAN_ANOMALY": 275.4789, "EPHEMERIS_TYPE": 0, "CLASSIFICATION_TYPE": "U", "NORAD_CAT_ID": 36036, "ELEMENT_SET_NO": 999, "REV_AT_EPOCH": 84630, "BSTAR": 0.00021488399, "MEAN_MOTION_DOT": 6.3e-06, "MEAN_MOTION_DDOT": 0}, "tle": {"line1": "1 36036U 09059A   25344.50723263  .00000630  00000+0  21488-3 0  9991", "line2": "2 36036  98.4381 169.5887 0001101  84.6525 275.4789 14.39738297846306"}}, "geometry": {"type": "Point", "coordinates": [-173.3664931220387, -62.51332775777302]}}, {"type": "Feature", "properties": {"norad_id": 36110, "name": "YAOGAN-7", "group": "resource", "lat": -60.047350802879336, "lon": 32.563590789008444, "alt_km": 632.2881605856828, "timestamp": "2025-12-10T23:33:12.483570+00:00", "meta": {"OBJECT_NAME": "YAOGAN-7", "OBJECT_ID": "2009-069A", "EPOCH": "2025-12-10T15:57:49.494816", "MEAN_MOTION": 14.77727666, "ECCENTRICITY": 0.00234245, "INCLINATION": 98.0302, "RA_OF_ASC_NODE": 226.4296, "ARG_OF_PERICENTER": 288.3627, "MEAN_ANOMALY": 71.5036, "EPHEMERIS_TYPE": 0, "CLASSIFICATION_TYPE": "U", "NORAD_CAT_ID": 36110, "ELEMENT_SET_NO": 999, "REV_AT_EPOCH": 86178, "BSTAR": 0.00015818108, "MEAN_MOTION_DOT": 1.085e-05, "MEAN_MOTION_DDOT": 0}, "tle": {"line1": "1 36110U 09069A   25344.66515619  .00001085  00000+0  15818-3 0  9991", "line2": "2 36110  98.0302 226.4296 0023424 288.3627  71.5036 14.77727666861782"}}, "geometry": {"type": "Point", "coordinates": [32.563590789008444, -60.047350802879336]}}, {"type": "Feature", "properties": {"norad_id": 36605, "name": "TANDEM-X", "group": "resource", "lat": -44.770123084594076, "lon": 162.93361259292465, "alt_km": 516.1790040854685, "timestamp": "2025-12-10T23:33:12.483579+00:00", "meta": {"OBJECT_NAME": "TANDEM-X", "OBJECT_ID": "2010-030A", "EPOCH": "2025-12-10T13:04:49.497312", "MEAN_MOTION": 15.19152954, "ECCENTRICITY": 0.0001855, "INCLINATION": 97.4451, "RA_OF_ASC_NODE": 349.9572, "ARG_OF_PERICENTER": 84.2987, "MEAN_ANOMALY": 275.8459, "EPHEMERIS_TYPE": 0, "CLASSIFICATION_TYPE": "U", "NORAD_CAT_ID": 36605, "ELEMENT_SET_NO": 999, "REV_AT_EPOCH": 85800, "BSTAR": 0.00014449226, "MEAN_MOTION_DOT": 2.969e-05, "MEAN_MOTION_DDOT": 0}, "tle": {"line1": "1 36605U 10030A   25344.54501733  .00002969  00000+0  14449-3 0  9990", "line2": "2 36605  97.4451 349.9572 0001855  84.2987 275.8459 15.19152954858001"}}, "geometry": {"type": "Point", "coordinates": [162.93361259292465, -44.770123084594076]}}, {"type": "Feature", "properties": {"norad_id": 36795, "name": "CARTOSAT-2B", "group": "resource", "lat": 17.315340664158523, "lon": -143.48683252721762, "alt_km": 632.1227977395456, "timestamp": "2025-12-10T23:33:12.483588+00:00", "meta": {"OBJECT_NAME": "CARTOSAT-2B", "OBJECT_ID": "2010-035A", "EPOCH": "2025-12-10T14:42:10.786176", "MEAN_MOTION": 14.78783423, "ECCENTRICITY": 0.00129221, "INCLINATION": 97.785, "RA_OF_ASC_NODE": 33.7119, "ARG_OF_PERICENTER": 83.4506, "MEAN_ANOMALY": 276.8176, "EPHEMERIS_TYPE": 0, "CLASSIFICATION_TYPE": "U", "NORAD_CAT_ID": 36795, "ELEMENT_SET_NO": 999, "REV_AT_EPOCH": 83198, "BSTAR": 0.00010888351, "MEAN_MOTION_DOT": 7.51e-06, "MEAN_MOTION_DDOT": 0}, "tle": {"line1": "1 36795U 10035A   25344.61262484  .00000751  00000+0  10888-3 0  9990", "line2": "2 36795  97.7850  33.7119 0012922  83.4506 276.8176 14.78783423831987"}}, "geometry": {"type": "Point", "coordinates": [-143.48683252721762, 17.315340664158523]}}, {"type": "Feature", "properties": {"norad_id": 36834, "name": "YAOGAN-10", "group": "resource", "lat": -25.215460646062635, "lon": -178.94088375400372, "alt_km": 621.0646925524807, "timestamp": "2025-12-10T23:33:12.483598+00:00", "meta": {"OBJECT_NAME": "YAOGAN-10", "OBJECT_ID": "2010-038A", "EPOCH": "2025-12-10T15:12:32.196672", "MEAN_MOTION": 14.84594196, "ECCENTRICITY": 0.00014482, "INCLINATION": 97.914, "RA_OF_ASC_NODE": 4.4698, "ARG_OF_PERICENTER": 82.3444, "MEAN_ANOMALY": 65.9021, "EPHEMERIS_TYPE": 0, "CLASSIFICATION_TYPE": "U", "NORAD_CAT_ID": 36834, "ELEMENT_SET_NO": 999, "REV_AT_EPOCH": 82922, "BSTAR": 0.00047944488, "MEAN_MOTION_DOT": 3.996e-05, "MEAN_MOTION_DDOT": 0}, "tle": {"line1": "1 36834U 10038A   25344.63370598  .00003996  00000+0  47944-3 0  9992", "line2": "2 36834  97.9140   4.4698 0001448  82.3444  65.9021 14.84594196829226"}}, "geometry": {"type": "Point", "coordinates": [-178.94088375400372, -25.215460646062635]}}]}